NORAD_CAT_ID,OBJECT_NAME,OBJECT_TYPE,EPOCH,MEAN_MOTION,ECCENTRICITY,INCLINATION,RA_OF_ASC_NODE,ARG_OF_PERICENTER,MEAN_ANOMALY,BSTAR,MEAN_MOTION_DOT,MEAN_MOTION_DDOT,TLE_LINE0,TLE_LINE1,TLE_LINE2,SEMIMAJOR_AXIS,PERIOD,APOGEE,PERIGEE,DECAYED
53835.0,STARLINK-4783,PAYLOAD,2023-04-15 21:40:58,15.08838418,0.0001506,53.2185,16.981,123.7581,236.3554,8.2508e-05,1.025e-05,0.0,0 STARLINK-4783,1 53835U 22114T   23105.90345270  .00001025  00000-0  82508-4 0  9990,2 53835  53.2185  16.9810 0001506 123.7581 236.3554 15.08838418 32452,6917.885,95.438,540.792,538.708,0.0
53835.0,STARLINK-4783,PAYLOAD,2023-04-16 04:02:30,15.08846011,0.0001049,53.2189,15.7928,92.1562,267.955,0.00054277,8.362e-05,0.0,0 STARLINK-4783,1 53835U 22114T   23106.16841343  .00008362  00000-0  54277-3 0  9993,2 53835  53.2189  15.7928 0001049  92.1562 267.9550 15.08846011 33032,6917.862,95.437,540.453,539.001,0.0
53835.0,STARLINK-4783,PAYLOAD,2023-04-16 21:31:46,15.08832754,0.0001161,53.2187,12.5219,68.8172,291.2944,0.00081549,0.00012712,0.0,0 STARLINK-4783,1 53835U 22114T   23106.89706118  .00012712  00000-0  81549-3 0  9999,2 53835  53.2187  12.5219 0001161  68.8172 291.2944 15.08832754 33148,6917.903,95.438,540.571,538.964,0.0
53835.0,STARLINK-4783,PAYLOAD,2023-04-17 03:53:18,15.08847141,9.58e-05,53.2181,11.3328,83.2668,276.8433,0.00081178,0.00012658,0.0,0 STARLINK-4783,1 53835U 22114T   23107.16201715  .00012658  00000-0  81178-3 0  9990,2 53835  53.2181  11.3328 0000958  83.2668 276.8433 15.08847141 32646,6917.859,95.437,540.386,539.061,0.0
53835.0,STARLINK-4783,PAYLOAD,2023-04-17 18:11:47,15.08834087,0.0001359,53.2184,8.6557,82.72,277.3946,0.00024984,3.69e-05,0.0,0 STARLINK-4783,1 53835U 22114T   23107.75818506  .00003690  00000-0  24984-3 0  9995,2 53835  53.2184   8.6557 0001359  82.7200 277.3946 15.08834087 32734,6917.898,95.438,540.704,538.823,0.0
53835.0,STARLINK-4783,PAYLOAD,2023-04-17 21:22:33,15.0883473,0.0001269,53.2187,8.0613,94.3271,265.7867,0.00042512,6.483e-05,0.0,0 STARLINK-4783,1 53835U 22114T   23107.89066456  .00006483  00000-0  42512-3 0  9999,2 53835  53.2187   8.0613 0001269  94.3271 265.7867 15.08834730 33291,6917.896,95.438,540.639,538.884,0.0
53835.0,STARLINK-4783,PAYLOAD,2023-04-18 03:44:05,15.08856844,0.0001149,53.2183,6.8733,87.9528,272.1596,0.0011037,0.00017329,0.0,0 STARLINK-4783,1 53835U 22114T   23108.15562168  .00017329  00000-0  11037-2 0  9998,2 53835  53.2183   6.8733 0001149  87.9528 272.1596 15.08856844 33332,6917.829,95.436,540.489,538.899,0.0
53835.0,STARLINK-4783,PAYLOAD,2023-04-19 01:59:29,15.08853051,0.0001187,53.2172,2.7086,86.8224,273.2904,0.0007139,0.00011096,0.0,0 STARLINK-4783,1 53835U 22114T   23109.08298264  .00011096  00000-0  71390-3 0  9998,2 53835  53.2172   2.7086 0001187  86.8224 273.2904 15.08853051 33476,6917.84,95.437,540.527,538.884,0.0
53835.0,STARLINK-4783,PAYLOAD,2023-04-20 01:50:16,15.088603,0.0001857,53.2172,358.2498,102.7708,257.3492,0.00069346,0.00010772,0.0,0 STARLINK-4783,1 53835U 22114T   23110.07657829  .00010772  00000-0  69346-3 0  9993,2 53835  53.2172 358.2498 0001857 102.7708 257.3492 15.08860300 33088,6917.818,95.436,540.968,538.399,0.0
53835.0,STARLINK-4783,PAYLOAD,2023-04-20 22:30:17,15.08840725,0.0001382,53.2168,354.3864,95.4115,264.7034,8.9247e-05,1.133e-05,0.0,0 STARLINK-4783,1 53835U 22114T   23110.93770149  .00001133  00000-0  89247-4 0  9993,2 53835  53.2168 354.3864 0001382  95.4115 264.7034 15.08840725 33757,6917.878,95.438,540.699,538.787,0.0
53835.0,STARLINK-4783,PAYLOAD,2023-04-21 09:38:00,15.08826329,0.0001227,53.2183,352.3033,92.7006,267.4126,-0.00017775,-3.115e-05,0.0,0 STARLINK-4783,1 53835U 22114T   23111.40138937 -.00003115  00000-0 -17775-3 0  9999,2 53835  53.2183 352.3033 0001227  92.7006 267.4126 15.08826329 33821,6917.922,95.438,540.636,538.938,0.0
53835.0,STARLINK-4783,PAYLOAD,2023-04-21 22:21:05,15.08836621,6.64e-05,53.2162,349.9249,89.249,270.8578,7.258e-05,8.68e-06,0.0,0 STARLINK-4783,1 53835U 22114T   23111.93130871  .00000868  00000-0  72580-4 0  9992,2 53835  53.2162 349.9249 0000664  89.2490 270.8578 15.08836621 33905,6917.891,95.438,540.215,539.296,0.0
53835.0,STARLINK-4783,PAYLOAD,2023-04-22 19:01:05,15.08859367,0.0001061,53.2174,346.0579,103.5794,256.5317,0.00077203,0.00012027,0.0,0 STARLINK-4783,1 53835U 22114T   23112.79242216  .00012027  00000-0  77203-3 0  9990,2 53835  53.2174 346.0579 0001061 103.5794 256.5317 15.08859367 33499,6917.821,95.436,540.42,538.952,0.0
53835.0,STARLINK-4783,PAYLOAD,2023-04-23 01:22:37,15.08878107,0.000105,53.2174,344.8687,101.2362,258.8748,0.00088874,0.00013899,0.0,0 STARLINK-4783,1 53835U 22114T   23113.05737414  .00013899  00000-0  88874-3 0  9993,2 53835  53.2174 344.8687 0001050 101.2362 258.8748 15.08878107 33530,6917.764,95.435,540.355,538.903,0.0
53835.0,STARLINK-4783,PAYLOAD,2023-04-23 17:16:28,15.08842472,0.0001166,53.2172,341.8943,92.3671,267.7454,-8.4196e-05,-1.628e-05,0.0,0 STARLINK-4783,1 53835U 22114T   23113.71977884 -.00001628  00000-0 -84196-4 0  9996,2 53835  53.2172 341.8943 0001166  92.3671 267.7454 15.08842472 34171,6917.873,95.437,540.544,538.931,0.0
53835.0,STARLINK-4783,PAYLOAD,2023-04-23 23:38:01,15.08843491,0.0001287,53.2174,340.7061,85.6554,274.4585,0.00028575,4.263e-05,0.0,0 STARLINK-4783,1 53835U 22114T   23113.98474003  .00004263  00000-0  28575-3 0  9994,2 53835  53.2174 340.7061 0001287  85.6554 274.4585 15.08843491 34218,6917.87,95.437,540.625,538.844,0.0
53835.0,STARLINK-4783,PAYLOAD,2023-04-25 02:39:32,15.08892049,0.0001343,53.2178,335.6499,91.3145,268.8001,0.0011124,0.00017485,0.0,0 STARLINK-4783,1 53835U 22114T   23115.11079657  .00017485  00000-0  11124-2 0  9998,2 53835  53.2178 335.6499 0001343  91.3145 268.8001 15.08892049 33844,6917.721,95.434,540.515,538.657,0.0
53835.0,STARLINK-4783,PAYLOAD,2023-04-26 00:55:00,15.08798854,0.0001316,53.2173,331.488,114.7559,245.357,0.00094278,0.00014731,0.0,0 STARLINK-4783,1 53835U 22114T   23116.03819477  .00014731  00000-0  94278-3 0  9995,2 53835  53.2173 331.4880 0001316 114.7559 245.3570 15.08798854 34522,6918.006,95.44,540.782,538.961,0.0
53835.0,STARLINK-4783,PAYLOAD,2023-04-26 18:24:15,15.08829817,0.0001536,53.218,328.2149,106.5606,253.5555,0.0013892,0.00021884,0.0,0 STARLINK-4783,1 53835U 22114T   23116.76684661  .00021884  00000-0  13892-2 0  9999,2 53835  53.2180 328.2149 0001536 106.5606 253.5555 15.08829817 34638,6917.912,95.438,540.839,538.714,0.0
53835.0,STARLINK-4783,PAYLOAD,2023-04-27 02:21:11,15.08842971,0.0001291,53.2174,326.7293,107.3936,252.7197,0.0014908,0.0002352,0.0,0 STARLINK-4783,1 53835U 22114T   23117.09804777  .00023520  00000-0  14908-2 0  9996,2 53835  53.2174 326.7293 0001291 107.3936 252.7197 15.08842971 34142,6917.871,95.437,540.629,538.843,0.0
53835.0,STARLINK-4783,PAYLOAD,2023-04-27 13:28:53,15.08860221,0.0001333,53.2167,324.6476,114.9048,245.2083,0.0015618,0.00024669,0.0,0 STARLINK-4783,1 53835U 22114T   23117.56172482  .00024669  00000-0  15618-2 0  9993,2 53835  53.2167 324.6476 0001333 114.9048 245.2083 15.08860221 34755,6917.819,95.436,540.606,538.761,0.0
53835.0,STARLINK-4783,PAYLOAD,2023-04-27 21:25:48,15.08872539,0.0001199,53.2168,323.1614,113.1345,246.9774,0.0013559,0.00021376,0.0,0 STARLINK-4783,1 53835U 22114T   23117.89291869  .00021376  00000-0  13559-2 0  9994,2 53835  53.2168 323.1614 0001199 113.1345 246.9774 15.08872539 34261,6917.781,95.435,540.475,538.816,0.0
53835.0,STARLINK-4783,PAYLOAD,2023-04-28 06:58:06,15.08862518,0.0001317,53.2168,321.3773,96.2695,263.8447,0.00067582,0.00010491,0.0,0 STARLINK-4783,1 53835U 22114T   23118.29035765  .00010491  00000-0  67582-3 0  9992,2 53835  53.2168 321.3773 0001317  96.2695 263.8447 15.08862518 34326,6917.812,95.436,540.588,538.765,0.0
53835.0,STARLINK-4783,PAYLOAD,2023-04-28 19:41:11,15.08856068,0.0001214,53.2158,318.9979,102.4639,257.6489,0.00048756,7.483e-05,0.0,0 STARLINK-4783,1 53835U 22114T   23118.82027497  .00007483  00000-0  48756-3 0  9993,2 53835  53.2158 318.9979 0001214 102.4639 257.6489 15.08856068 34408,6917.831,95.437,540.536,538.856,0.0
53835.0,STARLINK-4783,PAYLOAD,2023-04-29 13:10:26,15.08846023,0.0001338,53.2156,315.728,86.1276,273.9869,0.00046926,7.189e-05,0.0,0 STARLINK-4783,1 53835U 22114T   23119.54891485  .00007189  00000-0  46926-3 0  9999,2 53835  53.2156 315.7280 0001338  86.1276 273.9869 15.08846023 35053,6917.862,95.437,540.653,538.801,0.0
53835.0,STARLINK-4783,PAYLOAD,2023-04-29 17:56:35,15.08850872,0.0001189,53.2166,314.835,101.3511,258.7615,0.00020703,3.01e-05,0.0,0 STARLINK-4783,1 53835U 22114T   23119.74763309  .00003010  00000-0  20703-3 0  9998,2 53835  53.2166 314.8350 0001189 101.3511 258.7615 15.08850872 34548,6917.847,95.437,540.535,538.89,0.0
53835.0,STARLINK-4783,PAYLOAD,2023-04-30 00:18:07,15.08855867,0.0001256,53.2167,313.6452,102.6297,257.4836,0.00035794,5.416e-05,0.0,0 STARLINK-4783,1 53835U 22114T   23120.01259034  .00005416  00000-0  35794-3 0  9993,2 53835  53.2167 313.6452 0001256 102.6297 257.4836 15.08855867 35124,6917.832,95.437,540.566,538.828,0.0
53835.0,STARLINK-4783,PAYLOAD,2023-04-30 14:36:36,15.08842939,0.0001202,53.2164,310.9693,94.9087,265.2043,0.0001066,1.409e-05,0.0,0 STARLINK-4783,1 53835U 22114T   23120.60875479  .00001409  00000-0  10660-3 0  9998,2 53835  53.2164 310.9693 0001202  94.9087 265.2043 15.08842939 34671,6917.871,95.437,540.568,538.905,0.0
53835.0,STARLINK-4783,PAYLOAD,2023-05-01 12:52:00,15.08840352,0.0001228,53.2166,306.8068,88.3503,271.763,6.7864e-05,7.92e-06,0.0,0 STARLINK-4783,1 53835U 22114T   23121.53611615  .00000792  00000-0  67864-4 0  9994,2 53835  53.2166 306.8068 0001228  88.3503 271.7630 15.08840352 35358,6917.879,95.438,540.594,538.895,0.0
53835.0,STARLINK-4783,PAYLOAD,2023-05-01 16:02:46,15.08841773,0.000123,53.2167,306.2113,93.2064,266.9069,9.96e-05,1.298e-05,0.0,0 STARLINK-4783,1 53835U 22114T   23121.66859558  .00001298  00000-0  99600-4 0  9993,2 53835  53.2167 306.2113 0001230  93.2064 266.9069 15.08841773 34836,6917.875,95.437,540.591,538.889,0.0
